[{"OBJECT_NAME":"SENTINEL-6A","OBJECT_ID":"2020-086A","EPOCH":"2026-04-04T22:16:50.538144","MEAN_MOTION":12.80930649,"ECCENTRICITY":0.00077268,"INCLINATION":66.0401,"RA_OF_ASC_NODE":287.2138,"ARG_OF_PERICENTER":270.7212,"MEAN_ANOMALY":89.2918,"EPHEMERIS_TYPE":0,"CLASSIFICATION_TYPE":"U","NORAD_CAT_ID":46984,"ELEMENT_SET_NO":999,"REV_AT_EPOCH":25094,"BSTAR":2.8491518e-5,"MEAN_MOTION_DOT":-5.4e-7,"MEAN_MOTION_DDOT":0},{"OBJECT_NAME":"GAOFEN-12 02","OBJECT_ID":"2021-026A","EPOCH":"2026-04-05T06:56:40.451712","MEAN_MOTION":14.80236752,"ECCENTRICITY":0.00062249,"INCLINATION":97.9933,"RA_OF_ASC_NODE":93.7738,"ARG_OF_PERICENTER":106.0157,"MEAN_ANOMALY":254.1741,"EPHEMERIS_TYPE":0,"CLASSIFICATION_TYPE":"U","NORAD_CAT_ID":48079,"ELEMENT_SET_NO":999,"REV_AT_EPOCH":27097,"BSTAR":9.7039127e-5,"MEAN_MOTION_DOT":6.85e-6,"MEAN_MOTION_DDOT":0},{"OBJECT_NAME":"PLEIADES NEO 3","OBJECT_ID":"2021-034A","EPOCH":"2026-04-04T20:17:18.730752","MEAN_MOTION":14.81675433,"ECCENTRICITY":0.00013165,"INCLINATION":97.8934,"RA_OF_ASC_NODE":170.6645,"ARG_OF_PERICENTER":89.7304,"MEAN_ANOMALY":270.4059,"EPHEMERIS_TYPE":0,"CLASSIFICATION_TYPE":"U","NORAD_CAT_ID":48268,"ELEMENT_SET_NO":999,"REV_AT_EPOCH":26679,"BSTAR":6.5280597e-5,"MEAN_MOTION_DOT":4.62e-6,"MEAN_MOTION_DDOT":0},{"OBJECT_NAME":"PLEIADES NEO 4","OBJECT_ID":"2021-073E","EPOCH":"2026-04-02T17:14:01.453632","MEAN_MOTION":14.81674962,"ECCENTRICITY":0.00013617,"INCLINATION":97.8936,"RA_OF_ASC_NODE":168.5642,"ARG_OF_PERICENTER":93.2976,"MEAN_ANOMALY":266.8392,"EPHEMERIS_TYPE":0,"CLASSIFICATION_TYPE":"U","NORAD_CAT_ID":49070,"ELEMENT_SET_NO":999,"REV_AT_EPOCH":25019,"BSTAR":3.9217218e-5,"MEAN_MOTION_DOT":2.57e-6,"MEAN_MOTION_DDOT":0},{"OBJECT_NAME":"LANDSAT 9","OBJECT_ID":"2021-088A","EPOCH":"2026-04-05T04:49:39.960480","MEAN_MOTION":14.57125766,"ECCENTRICITY":0.00011821,"INCLINATION":98.1894,"RA_OF_ASC_NODE":166.5529,"ARG_OF_PERICENTER":98.0172,"MEAN_ANOMALY":262.1161,"EPHEMERIS_TYPE":0,"CLASSIFICATION_TYPE":"U","NORAD_CAT_ID":49260,"ELEMENT_SET_NO":999,"REV_AT_EPOCH":24037,"BSTAR":0.00013864874,"MEAN_MOTION_DOT":5.8e-6,"MEAN_MOTION_DDOT":0},{"OBJECT_NAME":"CSG-2","OBJECT_ID":"2022-008A","EPOCH":"2026-04-05T07:24:35.236224","MEAN_MOTION":14.82148638,"ECCENTRICITY":0.00014034,"INCLINATION":97.8874,"RA_OF_ASC_NODE":279.9603,"ARG_OF_PERICENTER":82.6201,"MEAN_ANOMALY":277.5171,"EPHEMERIS_TYPE":0,"CLASSIFICATION_TYPE":"U","NORAD_CAT_ID":51444,"ELEMENT_SET_NO":999,"REV_AT_EPOCH":22579,"BSTAR":1.3381602e-5,"MEAN_MOTION_DOT":5.4e-7,"MEAN_MOTION_DDOT":0},{"OBJECT_NAME":"GAOFEN-12 03","OBJECT_ID":"2022-069A","EPOCH":"2026-04-05T05:41:25.406304","MEAN_MOTION":14.79917674,"ECCENTRICITY":0.00021421,"INCLINATION":97.8368,"RA_OF_ASC_NODE":344.9178,"ARG_OF_PERICENTER":60.3959,"MEAN_ANOMALY":299.7467,"EPHEMERIS_TYPE":0,"CLASSIFICATION_TYPE":"U","NORAD_CAT_ID":52912,"ELEMENT_SET_NO":999,"REV_AT_EPOCH":20382,"BSTAR":0.00024347801,"MEAN_MOTION_DOT":1.787e-5,"MEAN_MOTION_DDOT":0},{"OBJECT_NAME":"SWOT","OBJECT_ID":"2022-173A","EPOCH":"2026-04-05T05:56:52.777248","MEAN_MOTION":14.00168262,"ECCENTRICITY":6.941e-5,"INCLINATION":77.6087,"RA_OF_ASC_NODE":133.7751,"ARG_OF_PERICENTER":203.4317,"MEAN_ANOMALY":156.6803,"EPHEMERIS_TYPE":0,"CLASSIFICATION_TYPE":"U","NORAD_CAT_ID":54754,"ELEMENT_SET_NO":999,"REV_AT_EPOCH":16894,"BSTAR":4.027757e-5,"MEAN_MOTION_DOT":5.7e-7,"MEAN_MOTION_DDOT":0},{"OBJECT_NAME":"GAOFEN-12 04","OBJECT_ID":"2023-123A","EPOCH":"2026-04-05T06:18:26.207712","MEAN_MOTION":14.80086244,"ECCENTRICITY":0.00013085,"INCLINATION":97.913,"RA_OF_ASC_NODE":14.3345,"ARG_OF_PERICENTER":77.9207,"MEAN_ANOMALY":282.2152,"EPHEMERIS_TYPE":0,"CLASSIFICATION_TYPE":"U","NORAD_CAT_ID":57654,"ELEMENT_SET_NO":999,"REV_AT_EPOCH":14184,"BSTAR":0.00026428814,"MEAN_MOTION_DOT":1.952e-5,"MEAN_MOTION_DDOT":0},{"OBJECT_NAME":"PARS 1","OBJECT_ID":"2024-039Q","EPOCH":"2026-04-05T06:07:49.214208","MEAN_MOTION":15.44209717,"ECCENTRICITY":0.00105418,"INCLINATION":97.4791,"RA_OF_ASC_NODE":73.9851,"ARG_OF_PERICENTER":30.8153,"MEAN_ANOMALY":329.3711,"EPHEMERIS_TYPE":0,"CLASSIFICATION_TYPE":"U","NORAD_CAT_ID":59065,"ELEMENT_SET_NO":999,"REV_AT_EPOCH":11738,"BSTAR":0.00034855202,"MEAN_MOTION_DOT":0.00015952,"MEAN_MOTION_DDOT":0},{"OBJECT_NAME":"RESURS-P 4","OBJECT_ID":"2024-061A","EPOCH":"2026-04-05T05:54:30.213792","MEAN_MOTION":15.33172206,"ECCENTRICITY":8.3e-5,"INCLINATION":97.2698,"RA_OF_ASC_NODE":44.4437,"ARG_OF_PERICENTER":90.8786,"MEAN_ANOMALY":269.2552,"EPHEMERIS_TYPE":0,"CLASSIFICATION_TYPE":"U","NORAD_CAT_ID":59371,"ELEMENT_SET_NO":999,"REV_AT_EPOCH":11259,"BSTAR":0.0001623867,"MEAN_MOTION_DOT":5.127e-5,"MEAN_MOTION_DDOT":0},{"OBJECT_NAME":"LEGION 1","OBJECT_ID":"2024-081A","EPOCH":"2026-04-05T06:13:19.371072","MEAN_MOTION":15.16619102,"ECCENTRICITY":0.00084442,"INCLINATION":97.5034,"RA_OF_ASC_NODE":173.8836,"ARG_OF_PERICENTER":272.6522,"MEAN_ANOMALY":87.3744,"EPHEMERIS_TYPE":0,"CLASSIFICATION_TYPE":"U","NORAD_CAT_ID":59625,"ELEMENT_SET_NO":999,"REV_AT_EPOCH":10648,"BSTAR":0.00028149328,"MEAN_MOTION_DOT":5.44e-5,"MEAN_MOTION_DDOT":0},{"OBJECT_NAME":"LEGION 2","OBJECT_ID":"2024-081B","EPOCH":"2026-04-05T07:06:12.383424","MEAN_MOTION":15.16845556,"ECCENTRICITY":0.00095467,"INCLINATION":97.5035,"RA_OF_ASC_NODE":174.002,"ARG_OF_PERICENTER":240.5527,"MEAN_ANOMALY":119.4754,"EPHEMERIS_TYPE":0,"CLASSIFICATION_TYPE":"U","NORAD_CAT_ID":59626,"ELEMENT_SET_NO":999,"REV_AT_EPOCH":10649,"BSTAR":0.00034711622,"MEAN_MOTION_DOT":6.77e-5,"MEAN_MOTION_DDOT":0},{"OBJECT_NAME":"ALOS-4 (DAICHI-4)","OBJECT_ID":"2024-123A","EPOCH":"2026-04-02T19:34:19.378848","MEAN_MOTION":14.79483193,"ECCENTRICITY":0.00016145,"INCLINATION":97.9197,"RA_OF_ASC_NODE":191.0646,"ARG_OF_PERICENTER":100.5955,"MEAN_ANOMALY":259.5439,"EPHEMERIS_TYPE":0,"CLASSIFICATION_TYPE":"U","NORAD_CAT_ID":60182,"ELEMENT_SET_NO":999,"REV_AT_EPOCH":9473,"BSTAR":0.00034964834,"MEAN_MOTION_DOT":2.561e-5,"MEAN_MOTION_DDOT":0},{"OBJECT_NAME":"LEGION 3","OBJECT_ID":"2024-146A","EPOCH":"2026-04-05T05:42:47.164032","MEAN_MOTION":15.15447642,"ECCENTRICITY":0.00076431,"INCLINATION":45.0014,"RA_OF_ASC_NODE":61.599,"ARG_OF_PERICENTER":115.2494,"MEAN_ANOMALY":244.9178,"EPHEMERIS_TYPE":0,"CLASSIFICATION_TYPE":"U","NORAD_CAT_ID":60452,"ELEMENT_SET_NO":999,"REV_AT_EPOCH":9095,"BSTAR":0.00037836319,"MEAN_MOTION_DOT":7.024e-5,"MEAN_MOTION_DDOT":0},{"OBJECT_NAME":"LEGION 4","OBJECT_ID":"2024-146B","EPOCH":"2026-04-05T05:42:33.609600","MEAN_MOTION":15.15445338,"ECCENTRICITY":0.00156901,"INCLINATION":45.0004,"RA_OF_ASC_NODE":153.4724,"ARG_OF_PERICENTER":264.5301,"MEAN_ANOMALY":95.3788,"EPHEMERIS_TYPE":0,"CLASSIFICATION_TYPE":"U","NORAD_CAT_ID":60453,"ELEMENT_SET_NO":999,"REV_AT_EPOCH":8980,"BSTAR":0.0003219705,"MEAN_MOTION_DOT":5.948e-5,"MEAN_MOTION_DDOT":0},{"OBJECT_NAME":"SENTINEL-2C","OBJECT_ID":"2024-157A","EPOCH":"2026-04-05T03:58:23.160576","MEAN_MOTION":14.30824598,"ECCENTRICITY":0.00012396,"INCLINATION":98.5649,"RA_OF_ASC_NODE":170.9969,"ARG_OF_PERICENTER":114.7083,"MEAN_ANOMALY":245.4229,"EPHEMERIS_TYPE":0,"CLASSIFICATION_TYPE":"U","NORAD_CAT_ID":60989,"ELEMENT_SET_NO":999,"REV_AT_EPOCH":8254,"BSTAR":8.8606325e-5,"MEAN_MOTION_DOT":1.89e-6,"MEAN_MOTION_DDOT":0}]
