SENTINEL-6A             
1 46984U 20086A   26094.92836271 -.00000054  00000+0  28492-4 0  9994
2 46984  66.0401 287.2138 0007726 270.7212  89.2918 12.80930649250943
GAOFEN-12 02            
1 48079U 21026A   26095.28935708  .00000685  00000+0  97039-4 0  9993
2 48079  97.9933  93.7738 0006224 106.0157 254.1741 14.80236752270978
PLEIADES NEO 3          
1 48268U 21034A   26094.84535568  .00000462  00000+0  65281-4 0  9990
2 48268  97.8934 170.6645 0001316  89.7304 270.4059 14.81675433266790
PLEIADES NEO 4          
1 49070U 21073E   26092.71807238  .00000257  00000+0  39217-4 0  9997
2 49070  97.8936 168.5642 0001361  93.2976 266.8392 14.81674962250194
LANDSAT 9               
1 49260U 21088A   26095.20115695  .00000580  00000+0  13865-3 0  9999
2 49260  98.1894 166.5529 0001182  98.0172 262.1161 14.57125766240374
CSG-2                   
1 51444U 22008A   26095.30874116  .00000054  00000+0  13382-4 0  9991
2 51444  97.8874 279.9603 0001403  82.6201 277.5171 14.82148638225796
GAOFEN-12 03            
1 52912U 22069A   26095.23709961  .00001787  00000+0  24348-3 0  9993
2 52912  97.8368 344.9178 0002142  60.3959 299.7467 14.79917674203823
SWOT                    
1 54754U 22173A   26095.24783307  .00000057  00000+0  40278-4 0  9992
2 54754  77.6087 133.7751 0000694 203.4317 156.6803 14.00168262168945
GAOFEN-12 04            
1 57654U 23123A   26095.26280333  .00001952  00000+0  26429-3 0  9999
2 57654  97.9130  14.3345 0001308  77.9207 282.2152 14.80086244141849
PARS 1                  
1 59065U 24039Q   26095.25543072  .00015952  00000+0  34855-3 0  9992
2 59065  97.4791  73.9851 0010541  30.8153 329.3711 15.44209717117384
RESURS-P 4              
1 59371U 24061A   26095.24618303  .00005127  00000+0  16239-3 0  9995
2 59371  97.2698  44.4437 0000830  90.8786 269.2552 15.33172206112592
LEGION 1                
1 59625U 24081A   26095.25925198  .00005440  00000+0  28149-3 0  9994
2 59625  97.5034 173.8836 0008444 272.6522  87.3744 15.16619102106483
LEGION 2                
1 59626U 24081B   26095.29597666  .00006770  00000+0  34712-3 0  9994
2 59626  97.5035 174.0020 0009546 240.5527 119.4754 15.16845556106499
ALOS-4 (DAICHI-4)       
1 60182U 24123A   26092.81550207  .00002561  00000+0  34965-3 0  9999
2 60182  97.9197 191.0646 0001614 100.5955 259.5439 14.79483193 94734
LEGION 3                
1 60452U 24146A   26095.23804588  .00007024  00000+0  37836-3 0  9996
2 60452  45.0014  61.5990 0007643 115.2494 244.9178 15.15447642 90956
LEGION 4                
1 60453U 24146B   26095.23788900  .00005948  00000+0  32197-3 0  9994
2 60453  45.0004 153.4724 0015690 264.5301  95.3788 15.15445338 89805
SENTINEL-2C             
1 60989U 24157A   26095.16554584  .00000189  00000+0  88606-4 0  9990
2 60989  98.5649 170.9969 0001239 114.7083 245.4229 14.30824598 82546
